QIANFAN-9               
1 60387U 24140J   26014.56894086  .00000114  00000+0  15744-3 0  9993
2 60387  88.9783 295.9453 0017901 100.0407 260.2765 13.50990271 71762
QIANFAN-10              
1 60388U 24140K   26014.57310218  .00000114  00000+0  15768-3 0  9991
2 60388  88.9792 295.2953 0016565  79.5529 280.7488 13.50990645 71899
QIANFAN-11              
1 60389U 24140L   26014.53621673  .00000102  00000+0  13893-3 0  9992
2 60389  88.9718 295.8618 0015944  99.5538 260.7416 13.50990133 71547
QIANFAN-12              
1 60390U 24140M   26014.55669677  .00000117  00000+0  16214-3 0  9998
2 60390  88.9761 295.9174 0014631 106.5137 253.7623 13.50987695 71676
QIANFAN-13              
1 60391U 24140N   26014.60194510  .00000095  00000+0  12816-3 0  9993
2 60391  88.9774 296.0166 0014405 108.7331 251.5385 13.50988089 71706
QIANFAN-14              
1 60392U 24140P   26014.55250170  .00000120  00000+0  16614-3 0  9992
2 60392  88.9752 295.9123 0018079 109.7324 250.5780 13.50987680 71702
QIANFAN-15              
1 60393U 24140Q   26014.56080239  .00000104  00000+0  14176-3 0  9994
2 60393  88.9776 295.8758 0014106  96.4704 263.8054 13.50986194 71691
QIANFAN-16              
1 60394U 24140R   26014.54845748  .00000115  00000+0  15902-3 0  9997
2 60394  88.9779 295.9981 0015954 112.8850 247.3988 13.50991596 71607
